[{"OBJECT_NAME":"STARLINK-31078","OBJECT_ID":"2023-203W","EPOCH":"2026-03-09T01:34:06.615840","MEAN_MOTION":15.27582184,"ECCENTRICITY":0.00010977,"INCLINATION":43.0038,"RA_OF_ASC_NODE":70.8133,"ARG_OF_PERICENTER":233.2401,"MEAN_ANOMALY":126.835,"EPHEMERIS_TYPE":0,"CLASSIFICATION_TYPE":"U","NORAD_CAT_ID":58638,"ELEMENT_SET_NO":999,"REV_AT_EPOCH":12346,"BSTAR":-2.716962e-5,"MEAN_MOTION_DOT":-1.01e-5,"MEAN_MOTION_DDOT":0},{"OBJECT_NAME":"FLOCK 4G-12","OBJECT_ID":"2025-009S","EPOCH":"2026-03-09T17:16:21.445824","MEAN_MOTION":15.27059194,"ECCENTRICITY":0.00028933,"INCLINATION":97.4059,"RA_OF_ASC_NODE":151.1894,"ARG_OF_PERICENTER":310.1775,"MEAN_ANOMALY":49.9211,"EPHEMERIS_TYPE":0,"CLASSIFICATION_TYPE":"U","NORAD_CAT_ID":62625,"ELEMENT_SET_NO":999,"REV_AT_EPOCH":6371,"BSTAR":0.00043519262,"MEAN_MOTION_DOT":0.00011487,"MEAN_MOTION_DDOT":0}]
